STARLINK-35346          
1 66179U 25243C   25319.83335647 -.01946468  00000+0 -19485-1 0  9991
2 66179  53.1595  55.7363 0001237  64.8213 126.3953 15.68006857  4262
STARLINK-35335          
1 66180U 25243D   25319.83335647 -.01948678  00000+0 -19509-1 0  9995
2 66180  53.1597  55.7412 0001246  69.9186 119.3810 15.68008596  4262
STARLINK-35342          
1 66181U 25243E   25319.83335647 -.01945949  00000+0 -19480-1 0  9992
2 66181  53.1595  55.7453 0001238  68.3203 119.0641 15.68006012  4260
STARLINK-35333          
1 66182U 25243F   25319.83335647 -.01945730  00000+0 -19478-1 0  9998
2 66182  53.1597  55.7487 0001269  67.5560 117.9113 15.68005959  4216
STARLINK-35310          
1 66183U 25243G   25319.83335647 -.01946980  00000+0 -19491-1 0  9992
2 66183  53.1597  55.7535 0001291  68.1896 115.3600 15.68007203  4324
STARLINK-35317          
1 66184U 25243H   25319.83335647 -.01939596  00000+0 -19411-1 0  9990
2 66184  53.1596  55.7937 0001429  65.5340  98.8511 15.68000639  4263
STARLINK-35377          
1 66185U 25243J   25319.83335647 -.01944268  00000+0 -19461-1 0  9998
2 66185  53.1595  55.8017 0001374  63.2699  97.2778 15.68005425  4327
STARLINK-35365          
1 66186U 25243K   25319.83335647 -.01943713  00000+0 -19456-1 0  9997
2 66186  53.1594  55.8100 0001263  61.9988  94.7168 15.68004304  4266
STARLINK-35350          
1 66187U 25243L   25319.83335647 -.01945232  00000+0 -19472-1 0  9994
2 66187  53.1593  55.8060 0001313  64.1414  94.4900 15.68005893  4261
STARLINK-35041          
1 66188U 25243M   25319.83335647 -.01948344  00000+0 -19505-1 0  9999
2 66188  53.1594  55.7903 0001261  65.1000 101.1971 15.68008543  4317
STARLINK-34694          
1 66189U 25243N   25319.83335647 -.01945557  00000+0 -19476-1 0  9990
2 66189  53.1595  55.7822 0001253  65.8925 104.2403 15.68005721  4266
STARLINK-34863          
1 66190U 25243P   25319.83335647 -.01948174  00000+0 -19503-1 0  9991
2 66190  53.1594  55.7970 0001290  64.8414  97.6218 15.68008606  4268
